[{"OBJECT_NAME":"BISONSAT","OBJECT_ID":"2015-058L","EPOCH":"2026-03-09T11:49:35.353056","MEAN_MOTION":15.13791398,"ECCENTRICITY":0.00792382,"INCLINATION":64.7598,"RA_OF_ASC_NODE":135.3937,"ARG_OF_PERICENTER":90.6713,"MEAN_ANOMALY":270.349,"EPHEMERIS_TYPE":0,"CLASSIFICATION_TYPE":"U","NORAD_CAT_ID":40974,"ELEMENT_SET_NO":999,"REV_AT_EPOCH":10051,"BSTAR":0.0006711096,"MEAN_MOTION_DOT":0.00012971,"MEAN_MOTION_DDOT":0},{"OBJECT_NAME":"STARLINK-5172","OBJECT_ID":"2022-136P","EPOCH":"2026-03-09T21:31:29.648352","MEAN_MOTION":15.08840913,"ECCENTRICITY":0.00013338,"INCLINATION":53.2183,"RA_OF_ASC_NODE":298.3734,"ARG_OF_PERICENTER":85.9919,"MEAN_ANOMALY":274.1226,"EPHEMERIS_TYPE":0,"CLASSIFICATION_TYPE":"U","NORAD_CAT_ID":54064,"ELEMENT_SET_NO":999,"REV_AT_EPOCH":18750,"BSTAR":4.9761981e-5,"MEAN_MOTION_DOT":5.04e-6,"MEAN_MOTION_DDOT":0}]
